start=new Date('2021-12-08T00:00:00.000Z').valueOf();
sats=[{"OBJECT_TYPE":"PAYLOAD","SEMIMAJOR_AXIS":"6925.365","TLE_LINE1":"1 48456U 21040AE  21341.64779630 -.00000131  00000-0  10086-4 0  9992","ECCENTRICITY":"0.00018020","NORAD_CAT_ID":"48456","ELEMENT_SET_NO":"999","GP_ID":"191300396","PERIOD":"95.592","CLASSIFICATION_TYPE":"U","MEAN_MOTION_DOT":"-0.00000131","PERIAPSIS":"545.982","ARG_OF_PERICENTER":"60.5660","BSTAR":"0.00001008600000","INCLINATION":"53.0552","MEAN_MOTION":"15.06394633","COUNTRY_CODE":"US","MEAN_ELEMENT_THEORY":"SGP4","REF_FRAME":"TEME","RCS_SIZE":"LARGE","DECAY_DATE":null,"SITE":"AFETR","EPOCH":"2021-12-07T15:32:49.600320","RA_OF_ASC_NODE":"313.4931","TIME_SYSTEM":"UTC","REV_AT_EPOCH":"3254","OBJECT_ID":"2021-040AE","MEAN_ANOMALY":"299.5509","OBJECT_NAME":"STARLINK-2508","EPHEMERIS_TYPE":"0","MEAN_MOTION_DDOT":"0.0000000000000","LAUNCH_DATE":"2021-05-09","CENTER_NAME":"EARTH","APOAPSIS":"548.478","TLE_LINE2":"2 48456  53.0552 313.4931 0001802  60.5660 299.5509 15.06394633 32540","FILE":"3235143"},{"TIME_SYSTEM":"UTC","REV_AT_EPOCH":"3323","RA_OF_ASC_NODE":"317.2784","EPOCH":"2021-12-07T22:00:55.138176","OBJECT_NAME":"STARLINK-2698","MEAN_ANOMALY":"310.6584","OBJECT_ID":"2021-040AG","REF_FRAME":"TEME","MEAN_ELEMENT_THEORY":"SGP4","COUNTRY_CODE":"US","SITE":"AFETR","RCS_SIZE":"LARGE","DECAY_DATE":null,"LAUNCH_DATE":"2021-05-09","FILE":"3235143","TLE_LINE2":"2 48458  53.0569 317.2784 0002008  49.4579 310.6584 15.06396479 33237","APOAPSIS":"548.615","CENTER_NAME":"EARTH","MEAN_MOTION_DDOT":"0.0000000000000","EPHEMERIS_TYPE":"0","NORAD_CAT_ID":"48458","TLE_LINE1":"1 48458U 21040AG  21341.91730484 -.00000373  00000-0 -61629-5 0  9997","ECCENTRICITY":"0.00020080","SEMIMAJOR_AXIS":"6925.359","GP_ID":"191300907","ELEMENT_SET_NO":"999","OBJECT_TYPE":"PAYLOAD","BSTAR":"-0.00000616290000","ARG_OF_PERICENTER":"49.4579","MEAN_MOTION":"15.06396479","INCLINATION":"53.0569","MEAN_MOTION_DOT":"-0.00000373","PERIOD":"95.592","CLASSIFICATION_TYPE":"U","PERIAPSIS":"545.834"},{"BSTAR":"0.00012009000000","ARG_OF_PERICENTER":"53.5069","MEAN_MOTION":"15.06394024","INCLINATION":"53.0564","MEAN_MOTION_DOT":"0.00001507","PERIOD":"95.593","CLASSIFICATION_TYPE":"U","PERIAPSIS":"546.011","NORAD_CAT_ID":"48459","ECCENTRICITY":"0.00017630","TLE_LINE1":"1 48459U 21040AH  21341.22065604  .00001507  00000-0  12009-3 0  9991","SEMIMAJOR_AXIS":"6925.367","GP_ID":"191272810","ELEMENT_SET_NO":"999","OBJECT_TYPE":"PAYLOAD","LAUNCH_DATE":"2021-05-09","FILE":"3234816","APOAPSIS":"548.453","TLE_LINE2":"2 48459  53.0564 320.4101 0001763  53.5069 306.6082 15.06394024 32421","CENTER_NAME":"EARTH","MEAN_MOTION_DDOT":"0.0000000000000","EPHEMERIS_TYPE":"0","REV_AT_EPOCH":"3242","TIME_SYSTEM":"UTC","RA_OF_ASC_NODE":"320.4101","EPOCH":"2021-12-07T05:17:44.681856","OBJECT_NAME":"STARLINK-2579","MEAN_ANOMALY":"306.6082","OBJECT_ID":"2021-040AH","REF_FRAME":"TEME","MEAN_ELEMENT_THEORY":"SGP4","COUNTRY_CODE":"US","SITE":"AFETR","RCS_SIZE":"LARGE","DECAY_DATE":null},{"MEAN_MOTION_DOT":"0.00001375","PERIOD":"95.592","CLASSIFICATION_TYPE":"U","PERIAPSIS":"546.016","BSTAR":"0.00011121000000","ARG_OF_PERICENTER":"58.9266","MEAN_MOTION":"15.06396462","INCLINATION":"53.0563","OBJECT_TYPE":"PAYLOAD","NORAD_CAT_ID":"48460","TLE_LINE1":"1 48460U 21040AJ  21341.67128481  .00001375  00000-0  11121-3 0  9992","ECCENTRICITY":"0.00017450","SEMIMAJOR_AXIS":"6925.359","GP_ID":"191301579","ELEMENT_SET_NO":"999","MEAN_MOTION_DDOT":"0.0000000000000","EPHEMERIS_TYPE":"0","LAUNCH_DATE":"2021-05-09","FILE":"3235143","APOAPSIS":"548.433","TLE_LINE2":"2 48460  53.0563 318.3846 0001745  58.9266 301.1894 15.06396462 32993","CENTER_NAME":"EARTH","REF_FRAME":"TEME","MEAN_ELEMENT_THEORY":"SGP4","COUNTRY_CODE":"US","SITE":"AFETR","RCS_SIZE":"LARGE","DECAY_DATE":null,"TIME_SYSTEM":"UTC","REV_AT_EPOCH":"3299","RA_OF_ASC_NODE":"318.3846","EPOCH":"2021-12-07T16:06:39.007584","OBJECT_NAME":"STARLINK-2582","MEAN_ANOMALY":"301.1894","OBJECT_ID":"2021-040AJ"},{"OBJECT_TYPE":"PAYLOAD","TLE_LINE1":"1 48461U 21040AK  21341.35430137 -.00000167  00000-0  77165-5 0  9993","ECCENTRICITY":"0.00016480","SEMIMAJOR_AXIS":"6925.362","NORAD_CAT_ID":"48461","GP_ID":"191272182","ELEMENT_SET_NO":"999","MEAN_MOTION_DOT":"-0.00000167","PERIOD":"95.592","CLASSIFICATION_TYPE":"U","PERIAPSIS":"546.085","ARG_OF_PERICENTER":"62.1303","BSTAR":"0.00000771650000","INCLINATION":"53.0555","MEAN_MOTION":"15.06395701","COUNTRY_CODE":"US","REF_FRAME":"TEME","MEAN_ELEMENT_THEORY":"SGP4","DECAY_DATE":null,"RCS_SIZE":"LARGE","SITE":"AFETR","EPOCH":"2021-12-07T08:30:11.638368","REV_AT_EPOCH":"3244","TIME_SYSTEM":"UTC","RA_OF_ASC_NODE":"319.8025","MEAN_ANOMALY":"297.9853","OBJECT_ID":"2021-040AK","OBJECT_NAME":"STARLINK-2693","EPHEMERIS_TYPE":"0","MEAN_MOTION_DDOT":"0.0000000000000","LAUNCH_DATE":"2021-05-09","APOAPSIS":"548.368","TLE_LINE2":"2 48461  53.0555 319.8025 0001648  62.1303 297.9853 15.06395701 32443","CENTER_NAME":"EARTH","FILE":"3234816"},{"OBJECT_NAME":"STARLINK-2683","MEAN_ANOMALY":"311.0692","OBJECT_ID":"2021-040AL","REV_AT_EPOCH":"3243","TIME_SYSTEM":"UTC","RA_OF_ASC_NODE":"322.9192","EPOCH":"2021-12-07T18:35:53.903616","SITE":"AFETR","DECAY_DATE":null,"RCS_SIZE":"LARGE","REF_FRAME":"TEME","MEAN_ELEMENT_THEORY":"SGP4","COUNTRY_CODE":"US","FILE":"3235143","TLE_LINE2":"2 48462  53.0527 322.9192 0002012  49.0471 311.0692 15.06393322 32434","APOAPSIS":"548.627","CENTER_NAME":"EARTH","LAUNCH_DATE":"2021-05-09","MEAN_MOTION_DDOT":"0.0000000000000","EPHEMERIS_TYPE":"0","GP_ID":"191300566","ELEMENT_SET_NO":"999","NORAD_CAT_ID":"48462","TLE_LINE1":"1 48462U 21040AL  21341.77492944  .00000919  00000-0  80625-4 0  9992","ECCENTRICITY":"0.00020120","SEMIMAJOR_AXIS":"6925.369","OBJECT_TYPE":"PAYLOAD","MEAN_MOTION":"15.06393322","INCLINATION":"53.0527","BSTAR":"0.00008062500000","ARG_OF_PERICENTER":"49.0471","PERIAPSIS":"545.841","MEAN_MOTION_DOT":"0.00000919","PERIOD":"95.593","CLASSIFICATION_TYPE":"U"},{"EPHEMERIS_TYPE":"0","MEAN_MOTION_DDOT":"0.0000000000000","LAUNCH_DATE":"2021-05-09","APOAPSIS":"548.437","TLE_LINE2":"2 48463  53.0568 322.1828 0001756  53.6902 306.4249 15.06397464 32462","CENTER_NAME":"EARTH","FILE":"3235143","COUNTRY_CODE":"US","REF_FRAME":"TEME","MEAN_ELEMENT_THEORY":"SGP4","RCS_SIZE":"LARGE","DECAY_DATE":null,"SITE":"AFETR","EPOCH":"2021-12-07T22:34:47.074368","REV_AT_EPOCH":"3246","TIME_SYSTEM":"UTC","RA_OF_ASC_NODE":"322.1828","MEAN_ANOMALY":"306.4249","OBJECT_ID":"2021-040AM","OBJECT_NAME":"STARLINK-2689","MEAN_MOTION_DOT":"0.00001506","CLASSIFICATION_TYPE":"U","PERIOD":"95.592","PERIAPSIS":"546.005","ARG_OF_PERICENTER":"53.6902","BSTAR":"0.00011996000000","INCLINATION":"53.0568","MEAN_MOTION":"15.06397464","OBJECT_TYPE":"PAYLOAD","ECCENTRICITY":"0.00017560","TLE_LINE1":"1 48463U 21040AM  21341.94082262  .00001506  00000-0  11996-3 0  9997","SEMIMAJOR_AXIS":"6925.356","NORAD_CAT_ID":"48463","GP_ID":"191301410","ELEMENT_SET_NO":"999"},{"ELEMENT_SET_NO":"999","GP_ID":"191301244","NORAD_CAT_ID":"48464","SEMIMAJOR_AXIS":"6925.376","ECCENTRICITY":"0.00018670","TLE_LINE1":"1 48464U 21040AN  21341.65424373 -.00000344  00000-0 -41923-5 0  9995","OBJECT_TYPE":"PAYLOAD","MEAN_MOTION":"15.06391133","INCLINATION":"53.0574","BSTAR":"-0.00000419230000","ARG_OF_PERICENTER":"55.3606","PERIAPSIS":"545.948","CLASSIFICATION_TYPE":"U","PERIOD":"95.593","MEAN_MOTION_DOT":"-0.00000344","OBJECT_NAME":"STARLINK-2686","OBJECT_ID":"2021-040AN","MEAN_ANOMALY":"304.7559","RA_OF_ASC_NODE":"323.4686","TIME_SYSTEM":"UTC","REV_AT_EPOCH":"3241","EPOCH":"2021-12-07T15:42:06.658272","SITE":"AFETR","DECAY_DATE":null,"RCS_SIZE":"LARGE","MEAN_ELEMENT_THEORY":"SGP4","REF_FRAME":"TEME","COUNTRY_CODE":"US","FILE":"3235143","CENTER_NAME":"EARTH","APOAPSIS":"548.534","TLE_LINE2":"2 48464  53.0574 323.4686 0001867  55.3606 304.7559 15.06391133 32416","LAUNCH_DATE":"2021-05-09","MEAN_MOTION_DDOT":"0.0000000000000","EPHEMERIS_TYPE":"0"},{"OBJECT_TYPE":"PAYLOAD","SEMIMAJOR_AXIS":"6925.384","TLE_LINE1":"1 48465U 21040AP  21341.66530596 -.00001556  00000-0 -85591-4 0  9996","ECCENTRICITY":"0.00019870","NORAD_CAT_ID":"48465","ELEMENT_SET_NO":"999","GP_ID":"191300397","PERIOD":"95.593","CLASSIFICATION_TYPE":"U","MEAN_MOTION_DOT":"-0.00001556","PERIAPSIS":"545.873","ARG_OF_PERICENTER":"53.3609","BSTAR":"-0.00008559100000","INCLINATION":"53.0577","MEAN_MOTION":"15.06388408","COUNTRY_CODE":"US","MEAN_ELEMENT_THEORY":"SGP4","REF_FRAME":"TEME","DECAY_DATE":null,"RCS_SIZE":"LARGE","SITE":"AFETR","EPOCH":"2021-12-07T15:58:02.434944","RA_OF_ASC_NODE":"323.4094","TIME_SYSTEM":"UTC","REV_AT_EPOCH":"3242","OBJECT_ID":"2021-040AP","MEAN_ANOMALY":"306.7562","OBJECT_NAME":"STARLINK-2681","EPHEMERIS_TYPE":"0","MEAN_MOTION_DDOT":"0.0000000000000","LAUNCH_DATE":"2021-05-09","CENTER_NAME":"EARTH","APOAPSIS":"548.625","TLE_LINE2":"2 48465  53.0577 323.4094 0001987  53.3609 306.7562 15.06388408 32425","FILE":"3235143"},{"OBJECT_TYPE":"PAYLOAD","ELEMENT_SET_NO":"999","GP_ID":"191300908","NORAD_CAT_ID":"48466","SEMIMAJOR_AXIS":"6925.381","ECCENTRICITY":"0.00016610","TLE_LINE1":"1 48466U 21040AQ  21341.65055897 -.00000369  00000-0 -58855-5 0  9997","PERIAPSIS":"546.096","CLASSIFICATION_TYPE":"U","PERIOD":"95.593","MEAN_MOTION_DOT":"-0.00000369","MEAN_MOTION":"15.06389253","INCLINATION":"53.0560","BSTAR":"-0.00000588550000","ARG_OF_PERICENTER":"57.6981","SITE":"AFETR","RCS_SIZE":"LARGE","DECAY_DATE":null,"MEAN_ELEMENT_THEORY":"SGP4","REF_FRAME":"TEME","COUNTRY_CODE":"US","OBJECT_NAME":"STARLINK-2687","OBJECT_ID":"2021-040AQ","MEAN_ANOMALY":"302.4169","RA_OF_ASC_NODE":"323.4847","REV_AT_EPOCH":"3242","TIME_SYSTEM":"UTC","EPOCH":"2021-12-07T15:36:48.295008","MEAN_MOTION_DDOT":"0.0000000000000","EPHEMERIS_TYPE":"0","FILE":"3235143","CENTER_NAME":"EARTH","APOAPSIS":"548.397","TLE_LINE2":"2 48466  53.0560 323.4847 0001661  57.6981 302.4169 15.06389253 32428","LAUNCH_DATE":"2021-05-09"}];
